start=new Date('2022-04-07T00:00:00.000Z').valueOf();
sats=[{"MEAN_MOTION_DOT":"0.00003720","MEAN_ELEMENT_THEORY":"SGP4","EPHEMERIS_TYPE":"0","SITE":"AFETR","RCS_SIZE":"LARGE","TLE_LINE2":"2 48456  53.0535 135.5901 0001814  44.0977 316.0156 15.06398192 50606","ELEMENT_SET_NO":"999","LAUNCH_DATE":"2021-05-09","CENTER_NAME":"EARTH","REF_FRAME":"TEME","NORAD_CAT_ID":"48456","BSTAR":"0.00026849000000","GP_ID":"200590347","REV_AT_EPOCH":"5060","MEAN_MOTION":"15.06398192","COUNTRY_CODE":"US","DECAY_DATE":null,"SEMIMAJOR_AXIS":"6925.354","EPOCH":"2022-04-06T11:17:16.376352","OBJECT_TYPE":"PAYLOAD","ARG_OF_PERICENTER":"44.0977","MEAN_MOTION_DDOT":"0.0000000000000","OBJECT_ID":"2021-040AE","CLASSIFICATION_TYPE":"U","FILE":"3390907","RA_OF_ASC_NODE":"135.5901","PERIAPSIS":"545.963","MEAN_ANOMALY":"316.0156","INCLINATION":"53.0535","TLE_LINE1":"1 48456U 21040AE  22096.47032843  .00003720  00000-0  26849-3 0  9998","APOAPSIS":"548.475","PERIOD":"95.592","TIME_SYSTEM":"UTC","OBJECT_NAME":"STARLINK-2508","ECCENTRICITY":"0.00018140"},{"SEMIMAJOR_AXIS":"6925.393","DECAY_DATE":null,"COUNTRY_CODE":"US","MEAN_MOTION":"15.06385597","REV_AT_EPOCH":"5125","GP_ID":"200591097","BSTAR":"-0.00008033500000","NORAD_CAT_ID":"48458","REF_FRAME":"TEME","CENTER_NAME":"EARTH","LAUNCH_DATE":"2021-05-09","ELEMENT_SET_NO":"999","TLE_LINE2":"2 48458  53.0527 140.5766 0001542  57.0567 303.0570 15.06385597 51254","RCS_SIZE":"LARGE","SITE":"AFETR","EPHEMERIS_TYPE":"0","MEAN_ELEMENT_THEORY":"SGP4","MEAN_MOTION_DOT":"-0.00001477","ECCENTRICITY":"0.00015420","OBJECT_NAME":"STARLINK-2698","TIME_SYSTEM":"UTC","PERIOD":"95.593","APOAPSIS":"548.326","TLE_LINE1":"1 48458U 21040AG  22096.47443482 -.00001477  00000-0 -80335-4 0  9995","INCLINATION":"53.0527","MEAN_ANOMALY":"303.0570","PERIAPSIS":"546.190","RA_OF_ASC_NODE":"140.5766","CLASSIFICATION_TYPE":"U","FILE":"3390907","OBJECT_ID":"2021-040AG","MEAN_MOTION_DDOT":"0.0000000000000","ARG_OF_PERICENTER":"57.0567","OBJECT_TYPE":"PAYLOAD","EPOCH":"2022-04-06T11:23:11.168448"},{"OBJECT_ID":"2021-040AH","FILE":"3390778","CLASSIFICATION_TYPE":"U","RA_OF_ASC_NODE":"140.4344","PERIAPSIS":"546.107","MEAN_ANOMALY":"306.4626","INCLINATION":"53.0537","EPOCH":"2022-04-06T12:10:57.956736","OBJECT_TYPE":"PAYLOAD","ARG_OF_PERICENTER":"53.6513","MEAN_MOTION_DDOT":"0.0000000000000","OBJECT_NAME":"STARLINK-2579","ECCENTRICITY":"0.00016190","TLE_LINE1":"1 48459U 21040AH  22096.50761524 -.00001092  00000-0 -54409-4 0  9996","APOAPSIS":"548.349","PERIOD":"95.592","TIME_SYSTEM":"UTC","TLE_LINE2":"2 48459  53.0537 140.4344 0001619  53.6513 306.4626 15.06395242 51151","ELEMENT_SET_NO":"999","LAUNCH_DATE":"2021-05-09","CENTER_NAME":"EARTH","NORAD_CAT_ID":"48459","REF_FRAME":"TEME","BSTAR":"-0.00005440900000","MEAN_MOTION_DOT":"-0.00001092","MEAN_ELEMENT_THEORY":"SGP4","EPHEMERIS_TYPE":"0","SITE":"AFETR","RCS_SIZE":"LARGE","COUNTRY_CODE":"US","DECAY_DATE":null,"SEMIMAJOR_AXIS":"6925.363","GP_ID":"200566517","REV_AT_EPOCH":"5115","MEAN_MOTION":"15.06395242"},{"ECCENTRICITY":"0.00017300","OBJECT_NAME":"STARLINK-2582","TIME_SYSTEM":"UTC","APOAPSIS":"548.408","PERIOD":"95.592","TLE_LINE1":"1 48460U 21040AJ  22096.62650155  .00004438  00000-0  31661-3 0  9997","INCLINATION":"53.0536","RA_OF_ASC_NODE":"139.8962","PERIAPSIS":"546.012","MEAN_ANOMALY":"314.2931","FILE":"3391320","CLASSIFICATION_TYPE":"U","OBJECT_ID":"2021-040AJ","MEAN_MOTION_DDOT":"0.0000000000000","ARG_OF_PERICENTER":"45.8200","EPOCH":"2022-04-06T15:02:09.733920","OBJECT_TYPE":"PAYLOAD","SEMIMAJOR_AXIS":"6925.345","DECAY_DATE":null,"COUNTRY_CODE":"US","MEAN_MOTION":"15.06401266","REV_AT_EPOCH":"5107","GP_ID":"200625343","BSTAR":"0.00031661000000","REF_FRAME":"TEME","NORAD_CAT_ID":"48460","LAUNCH_DATE":"2021-05-09","CENTER_NAME":"EARTH","TLE_LINE2":"2 48460  53.0536 139.8962 0001730  45.8200 314.2931 15.06401266 51071","ELEMENT_SET_NO":"999","RCS_SIZE":"LARGE","MEAN_ELEMENT_THEORY":"SGP4","SITE":"AFETR","EPHEMERIS_TYPE":"0","MEAN_MOTION_DOT":"0.00004438"},{"PERIAPSIS":"545.960","MEAN_ANOMALY":"307.9274","RA_OF_ASC_NODE":"140.7156","INCLINATION":"53.0532","OBJECT_ID":"2021-040AK","FILE":"3390907","CLASSIFICATION_TYPE":"U","MEAN_MOTION_DDOT":"0.0000000000000","ARG_OF_PERICENTER":"52.1878","OBJECT_TYPE":"PAYLOAD","EPOCH":"2022-04-06T10:36:47.886624","OBJECT_NAME":"STARLINK-2693","ECCENTRICITY":"0.00017970","PERIOD":"95.592","APOAPSIS":"548.449","TIME_SYSTEM":"UTC","TLE_LINE1":"1 48461U 21040AK  22096.44222091  .00004283  00000-0  30625-3 0  9999","NORAD_CAT_ID":"48461","REF_FRAME":"TEME","BSTAR":"0.00030625000000","ELEMENT_SET_NO":"999","TLE_LINE2":"2 48461  53.0532 140.7156 0001797  52.1878 307.9274 15.06402822 50548","CENTER_NAME":"EARTH","LAUNCH_DATE":"2021-05-09","SITE":"AFETR","EPHEMERIS_TYPE":"0","MEAN_ELEMENT_THEORY":"SGP4","RCS_SIZE":"LARGE","MEAN_MOTION_DOT":"0.00004283","SEMIMAJOR_AXIS":"6925.340","COUNTRY_CODE":"US","DECAY_DATE":null,"MEAN_MOTION":"15.06402822","GP_ID":"200590848","REV_AT_EPOCH":"5054"},{"OBJECT_NAME":"STARLINK-2683","ECCENTRICITY":"0.00015530","APOAPSIS":"548.320","PERIOD":"95.593","TIME_SYSTEM":"UTC","TLE_LINE1":"1 48462U 21040AL  22096.39842152 -.00003133  00000-0 -19160-3 0  9996","RA_OF_ASC_NODE":"145.8973","PERIAPSIS":"546.169","MEAN_ANOMALY":"300.4326","INCLINATION":"53.0516","OBJECT_ID":"2021-040AL","FILE":"3390907","CLASSIFICATION_TYPE":"U","ARG_OF_PERICENTER":"59.6816","MEAN_MOTION_DDOT":"0.0000000000000","EPOCH":"2022-04-06T09:33:43.619328","OBJECT_TYPE":"PAYLOAD","SEMIMAJOR_AXIS":"6925.379","COUNTRY_CODE":"US","DECAY_DATE":null,"MEAN_MOTION":"15.06389981","GP_ID":"200591598","REV_AT_EPOCH":"5046","NORAD_CAT_ID":"48462","REF_FRAME":"TEME","BSTAR":"-0.00019160000000","TLE_LINE2":"2 48462  53.0516 145.8973 0001553  59.6816 300.4326 15.06389981 50465","ELEMENT_SET_NO":"999","LAUNCH_DATE":"2021-05-09","CENTER_NAME":"EARTH","MEAN_ELEMENT_THEORY":"SGP4","EPHEMERIS_TYPE":"0","SITE":"AFETR","RCS_SIZE":"LARGE","MEAN_MOTION_DOT":"-0.00003133"},{"EPHEMERIS_TYPE":"0","SITE":"AFETR","MEAN_ELEMENT_THEORY":"SGP4","RCS_SIZE":"LARGE","MEAN_MOTION_DOT":"0.00009043","REF_FRAME":"TEME","NORAD_CAT_ID":"48463","BSTAR":"0.00062534000000","ELEMENT_SET_NO":"999","TLE_LINE2":"2 48463  53.0530 145.4749 0001921  56.8282 303.2891 15.06391833 50483","CENTER_NAME":"EARTH","LAUNCH_DATE":"2021-05-09","MEAN_MOTION":"15.06391833","GP_ID":"200591850","REV_AT_EPOCH":"5048","SEMIMAJOR_AXIS":"6925.374","COUNTRY_CODE":"US","DECAY_DATE":null,"ARG_OF_PERICENTER":"56.8282","MEAN_MOTION_DDOT":"0.0000000000000","OBJECT_TYPE":"PAYLOAD","EPOCH":"2022-04-06T11:57:02.911104","PERIAPSIS":"545.908","MEAN_ANOMALY":"303.2891","RA_OF_ASC_NODE":"145.4749","INCLINATION":"53.0530","OBJECT_ID":"2021-040AM","FILE":"3390907","CLASSIFICATION_TYPE":"U","PERIOD":"95.593","APOAPSIS":"548.569","TIME_SYSTEM":"UTC","TLE_LINE1":"1 48463U 21040AM  22096.49795036  .00009043  00000-0  62534-3 0  9993","OBJECT_NAME":"STARLINK-2689","ECCENTRICITY":"0.00019210"},{"TLE_LINE1":"1 48464U 21040AN  22096.54311267  .00002723  00000-0  20166-3 0  9993","TIME_SYSTEM":"UTC","APOAPSIS":"548.295","PERIOD":"95.593","ECCENTRICITY":"0.00015180","OBJECT_NAME":"STARLINK-2686","EPOCH":"2022-04-06T13:02:04.934688","OBJECT_TYPE":"PAYLOAD","ARG_OF_PERICENTER":"62.1660","MEAN_MOTION_DDOT":"0.0000000000000","CLASSIFICATION_TYPE":"U","FILE":"3391320","OBJECT_ID":"2021-040AN","INCLINATION":"53.0540","RA_OF_ASC_NODE":"145.2710","MEAN_ANOMALY":"297.9482","PERIAPSIS":"546.192","REV_AT_EPOCH":"5048","GP_ID":"200625843","MEAN_MOTION":"15.06390161","DECAY_DATE":null,"COUNTRY_CODE":"US","SEMIMAJOR_AXIS":"6925.379","MEAN_MOTION_DOT":"0.00002723","RCS_SIZE":"MEDIUM","MEAN_ELEMENT_THEORY":"SGP4","SITE":"AFETR","EPHEMERIS_TYPE":"0","LAUNCH_DATE":"2021-05-09","CENTER_NAME":"EARTH","TLE_LINE2":"2 48464  53.0540 145.2710 0001518  62.1660 297.9482 15.06390161 50481","ELEMENT_SET_NO":"999","BSTAR":"0.00020166000000","REF_FRAME":"TEME","NORAD_CAT_ID":"48464"},{"MEAN_MOTION_DOT":"-0.00003209","MEAN_ELEMENT_THEORY":"SGP4","SITE":"AFETR","EPHEMERIS_TYPE":"0","RCS_SIZE":"LARGE","TLE_LINE2":"2 48465  53.0546 145.2213 0001329  58.0188 302.0930 15.06376206 50496","ELEMENT_SET_NO":"999","LAUNCH_DATE":"2021-05-09","CENTER_NAME":"EARTH","NORAD_CAT_ID":"48465","REF_FRAME":"TEME","BSTAR":"-0.00019674000000","GP_ID":"200624591","REV_AT_EPOCH":"5049","MEAN_MOTION":"15.06376206","COUNTRY_CODE":"US","DECAY_DATE":null,"SEMIMAJOR_AXIS":"6925.421","EPOCH":"2022-04-06T13:18:01.350720","OBJECT_TYPE":"PAYLOAD","ARG_OF_PERICENTER":"58.0188","MEAN_MOTION_DDOT":"0.0000000000000","OBJECT_ID":"2021-040AP","CLASSIFICATION_TYPE":"U","FILE":"3391320","RA_OF_ASC_NODE":"145.2213","PERIAPSIS":"546.366","MEAN_ANOMALY":"302.0930","INCLINATION":"53.0546","TLE_LINE1":"1 48465U 21040AP  22096.55418230 -.00003209  00000-0 -19674-3 0  9997","APOAPSIS":"548.207","PERIOD":"95.594","TIME_SYSTEM":"UTC","OBJECT_NAME":"STARLINK-2681","ECCENTRICITY":"0.00013290"},{"FILE":"3391320","CLASSIFICATION_TYPE":"U","OBJECT_ID":"2021-040AQ","INCLINATION":"53.0532","PERIAPSIS":"546.240","MEAN_ANOMALY":"308.6538","RA_OF_ASC_NODE":"144.9908","OBJECT_TYPE":"PAYLOAD","EPOCH":"2022-04-06T14:32:18.952224","ARG_OF_PERICENTER":"51.4582","MEAN_MOTION_DDOT":"0.0000000000000","ECCENTRICITY":"0.00014650","OBJECT_NAME":"STARLINK-2687","TLE_LINE1":"1 48466U 21040AQ  22096.60577491 -.00000995  00000-0 -47909-4 0  9991","TIME_SYSTEM":"UTC","PERIOD":"95.593","APOAPSIS":"548.269","CENTER_NAME":"EARTH","LAUNCH_DATE":"2021-05-09","ELEMENT_SET_NO":"999","TLE_LINE2":"2 48466  53.0532 144.9908 0001465  51.4582 308.6538 15.06386561 50508","BSTAR":"-0.00004790900000","NORAD_CAT_ID":"48466","REF_FRAME":"TEME","MEAN_MOTION_DOT":"-0.00000995","RCS_SIZE":"LARGE","EPHEMERIS_TYPE":"0","SITE":"AFETR","MEAN_ELEMENT_THEORY":"SGP4","DECAY_DATE":null,"COUNTRY_CODE":"US","SEMIMAJOR_AXIS":"6925.390","REV_AT_EPOCH":"5050","GP_ID":"200624342","MEAN_MOTION":"15.06386561"}];
